QIANFAN-86              
1 63172U 25046P   26064.06294255  .00000202  00000+0  29427-3 0  9997
2 63172  88.9763 311.2831 0009271 254.1456 105.8673 13.51001400 58667
QIANFAN-87              
1 63173U 25046Q   26064.10828779  .00000211  00000+0  30828-3 0  9994
2 63173  88.9759 311.3868 0009957 248.2307 111.7785 13.51009750 58604
QIANFAN-88              
1 63174U 25046R   26064.12460707  .00000200  00000+0  29054-3 0  9997
2 63174  88.9762 311.3418 0010346 257.9232 102.0760 13.50998080 58639
QIANFAN-89              
1 63175U 25046S   26064.16179989  .00000202  00000+0  29494-3 0  9991
2 63175  88.9762 311.5271 0014831 246.9042 113.0546 13.51008596 58537
QIANFAN-90              
1 63176U 25046T   26064.11657235  .00000216  00000+0  31620-3 0  9991
2 63176  88.9762 311.5042 0011788 245.0156 114.9772 13.51008465 58545
QIANFAN-91              
1 66033U 25233A   26064.14911014  .00000037  00000+0  38408-4 0  9998
2 66033  88.9929  53.7089 0001924  92.6525 267.4846 13.51004497 19137
QIANFAN-92              
1 66034U 25233B   26064.15727725  .00000025  00000+0  20254-4 0  9991
2 66034  88.9913  53.6968 0001934  85.8383 274.2990 13.51005898 19135
QIANFAN-93              
1 66035U 25233C   26064.16550992  .00000025  00000+0  19412-4 0  9997
2 66035  88.9940  53.7196 0001915  90.6908 269.4462 13.51004863 19137
QIANFAN-94              
1 66036U 25233D   26064.15300316  .00000032  00000+0  30488-4 0  9994
2 66036  88.9936  53.6277 0002046  88.0700 272.0685 13.50991874 19187
QIANFAN-95              
1 66037U 25233E   26064.16126622  .00000057  00000+0  69653-4 0  9995
2 66037  88.9934  53.1731 0002049  93.6042 266.5343 13.51015327 19438
QIANFAN-96              
1 66038U 25233F   26064.11206508  .00000039  00000+0  41653-4 0  9993
2 66038  88.9931  53.7242 0001936  94.6013 265.5359 13.51004683 19127
QIANFAN-97              
1 66039U 25233G   26064.09559244  .00000031  00000+0  30079-4 0  9991
2 66039  88.9935  53.7065 0001939  92.1461 267.9912 13.51004083 19134
QIANFAN-98              
1 66040U 25233H   26064.17783249  .00000043  00000+0  47946-4 0  9990
2 66040  88.9924  53.4403 0002455  85.4325 274.7106 13.51004547 19287
QIANFAN-99              
1 66041U 25233J   26064.10793147  .00000033  00000+0  33019-4 0  9997
2 66041  88.9935  53.7086 0002326  89.2005 270.9412 13.51004800 19138
QIANFAN-100             
1 66042U 25233K   26064.17373713  .00000057  00000+0  70079-4 0  9991
2 66042  88.9946  53.6172 0001911  91.3677 268.7693 13.51005661 19192
QIANFAN-101             
1 66043U 25233L   26064.21703221  .00000665  00000+0  26836-3 0  9994
2 66043  88.9936  52.5004 0016841 120.1512 240.1353 14.26733688 19806
QIANFAN-102             
1 66044U 25233M   26064.19417582  .00000027  00000+0  22438-4 0  9991
2 66044  88.9933  53.6119 0002093  88.5540 271.5850 13.50992423 19197
