[{"OBJECT_NAME":"QIANFAN-86","OBJECT_ID":"2025-046P","EPOCH":"2026-03-05T01:30:38.236320","MEAN_MOTION":13.510014,"ECCENTRICITY":0.0009271,"INCLINATION":88.9763,"RA_OF_ASC_NODE":311.2831,"ARG_OF_PERICENTER":254.1456,"MEAN_ANOMALY":105.8673,"EPHEMERIS_TYPE":0,"CLASSIFICATION_TYPE":"U","NORAD_CAT_ID":63172,"ELEMENT_SET_NO":999,"REV_AT_EPOCH":5866,"BSTAR":0.00029427,"MEAN_MOTION_DOT":2.02e-6,"MEAN_MOTION_DDOT":0},{"OBJECT_NAME":"QIANFAN-87","OBJECT_ID":"2025-046Q","EPOCH":"2026-03-05T02:35:56.065056","MEAN_MOTION":13.5100975,"ECCENTRICITY":0.0009957,"INCLINATION":88.9759,"RA_OF_ASC_NODE":311.3868,"ARG_OF_PERICENTER":248.2307,"MEAN_ANOMALY":111.7785,"EPHEMERIS_TYPE":0,"CLASSIFICATION_TYPE":"U","NORAD_CAT_ID":63173,"ELEMENT_SET_NO":999,"REV_AT_EPOCH":5860,"BSTAR":0.00030828,"MEAN_MOTION_DOT":2.11e-6,"MEAN_MOTION_DDOT":0},{"OBJECT_NAME":"QIANFAN-88","OBJECT_ID":"2025-046R","EPOCH":"2026-03-05T02:59:26.050848","MEAN_MOTION":13.5099808,"ECCENTRICITY":0.0010346,"INCLINATION":88.9762,"RA_OF_ASC_NODE":311.3418,"ARG_OF_PERICENTER":257.9232,"MEAN_ANOMALY":102.076,"EPHEMERIS_TYPE":0,"CLASSIFICATION_TYPE":"U","NORAD_CAT_ID":63174,"ELEMENT_SET_NO":999,"REV_AT_EPOCH":5863,"BSTAR":0.00029054,"MEAN_MOTION_DOT":2.0e-6,"MEAN_MOTION_DDOT":0},{"OBJECT_NAME":"QIANFAN-89","OBJECT_ID":"2025-046S","EPOCH":"2026-03-05T03:52:59.510496","MEAN_MOTION":13.51008596,"ECCENTRICITY":0.0014831,"INCLINATION":88.9762,"RA_OF_ASC_NODE":311.5271,"ARG_OF_PERICENTER":246.9042,"MEAN_ANOMALY":113.0546,"EPHEMERIS_TYPE":0,"CLASSIFICATION_TYPE":"U","NORAD_CAT_ID":63175,"ELEMENT_SET_NO":999,"REV_AT_EPOCH":5853,"BSTAR":0.00029494,"MEAN_MOTION_DOT":2.02e-6,"MEAN_MOTION_DDOT":0},{"OBJECT_NAME":"QIANFAN-90","OBJECT_ID":"2025-046T","EPOCH":"2026-03-05T02:47:51.851040","MEAN_MOTION":13.51008465,"ECCENTRICITY":0.0011788,"INCLINATION":88.9762,"RA_OF_ASC_NODE":311.5042,"ARG_OF_PERICENTER":245.0156,"MEAN_ANOMALY":114.9772,"EPHEMERIS_TYPE":0,"CLASSIFICATION_TYPE":"U","NORAD_CAT_ID":63176,"ELEMENT_SET_NO":999,"REV_AT_EPOCH":5854,"BSTAR":0.0003162,"MEAN_MOTION_DOT":2.16e-6,"MEAN_MOTION_DDOT":0},{"OBJECT_NAME":"QIANFAN-91","OBJECT_ID":"2025-233A","EPOCH":"2026-03-05T03:34:43.116096","MEAN_MOTION":13.51004497,"ECCENTRICITY":0.0001924,"INCLINATION":88.9929,"RA_OF_ASC_NODE":53.7089,"ARG_OF_PERICENTER":92.6525,"MEAN_ANOMALY":267.4846,"EPHEMERIS_TYPE":0,"CLASSIFICATION_TYPE":"U","NORAD_CAT_ID":66033,"ELEMENT_SET_NO":999,"REV_AT_EPOCH":1913,"BSTAR":3.8408e-5,"MEAN_MOTION_DOT":3.7e-7,"MEAN_MOTION_DDOT":0},{"OBJECT_NAME":"QIANFAN-92","OBJECT_ID":"2025-233B","EPOCH":"2026-03-05T03:46:28.754400","MEAN_MOTION":13.51005898,"ECCENTRICITY":0.0001934,"INCLINATION":88.9913,"RA_OF_ASC_NODE":53.6968,"ARG_OF_PERICENTER":85.8383,"MEAN_ANOMALY":274.299,"EPHEMERIS_TYPE":0,"CLASSIFICATION_TYPE":"U","NORAD_CAT_ID":66034,"ELEMENT_SET_NO":999,"REV_AT_EPOCH":1913,"BSTAR":2.0254e-5,"MEAN_MOTION_DOT":2.5e-7,"MEAN_MOTION_DDOT":0},{"OBJECT_NAME":"QIANFAN-93","OBJECT_ID":"2025-233C","EPOCH":"2026-03-05T03:58:20.057088","MEAN_MOTION":13.51004863,"ECCENTRICITY":0.0001915,"INCLINATION":88.994,"RA_OF_ASC_NODE":53.7196,"ARG_OF_PERICENTER":90.6908,"MEAN_ANOMALY":269.4462,"EPHEMERIS_TYPE":0,"CLASSIFICATION_TYPE":"U","NORAD_CAT_ID":66035,"ELEMENT_SET_NO":999,"REV_AT_EPOCH":1913,"BSTAR":1.9412e-5,"MEAN_MOTION_DOT":2.5e-7,"MEAN_MOTION_DDOT":0},{"OBJECT_NAME":"QIANFAN-94","OBJECT_ID":"2025-233D","EPOCH":"2026-03-05T03:40:19.473024","MEAN_MOTION":13.50991874,"ECCENTRICITY":0.0002046,"INCLINATION":88.9936,"RA_OF_ASC_NODE":53.6277,"ARG_OF_PERICENTER":88.07,"MEAN_ANOMALY":272.0685,"EPHEMERIS_TYPE":0,"CLASSIFICATION_TYPE":"U","NORAD_CAT_ID":66036,"ELEMENT_SET_NO":999,"REV_AT_EPOCH":1918,"BSTAR":3.0488e-5,"MEAN_MOTION_DOT":3.2e-7,"MEAN_MOTION_DDOT":0},{"OBJECT_NAME":"QIANFAN-95","OBJECT_ID":"2025-233E","EPOCH":"2026-03-05T03:52:13.401408","MEAN_MOTION":13.51015327,"ECCENTRICITY":0.0002049,"INCLINATION":88.9934,"RA_OF_ASC_NODE":53.1731,"ARG_OF_PERICENTER":93.6042,"MEAN_ANOMALY":266.5343,"EPHEMERIS_TYPE":0,"CLASSIFICATION_TYPE":"U","NORAD_CAT_ID":66037,"ELEMENT_SET_NO":999,"REV_AT_EPOCH":1943,"BSTAR":6.9653e-5,"MEAN_MOTION_DOT":5.7e-7,"MEAN_MOTION_DDOT":0},{"OBJECT_NAME":"QIANFAN-96","OBJECT_ID":"2025-233F","EPOCH":"2026-03-05T02:41:22.422912","MEAN_MOTION":13.51004683,"ECCENTRICITY":0.0001936,"INCLINATION":88.9931,"RA_OF_ASC_NODE":53.7242,"ARG_OF_PERICENTER":94.6013,"MEAN_ANOMALY":265.5359,"EPHEMERIS_TYPE":0,"CLASSIFICATION_TYPE":"U","NORAD_CAT_ID":66038,"ELEMENT_SET_NO":999,"REV_AT_EPOCH":1912,"BSTAR":4.1653e-5,"MEAN_MOTION_DOT":3.9e-7,"MEAN_MOTION_DDOT":0},{"OBJECT_NAME":"QIANFAN-97","OBJECT_ID":"2025-233G","EPOCH":"2026-03-05T02:17:39.186816","MEAN_MOTION":13.51004083,"ECCENTRICITY":0.0001939,"INCLINATION":88.9935,"RA_OF_ASC_NODE":53.7065,"ARG_OF_PERICENTER":92.1461,"MEAN_ANOMALY":267.9912,"EPHEMERIS_TYPE":0,"CLASSIFICATION_TYPE":"U","NORAD_CAT_ID":66039,"ELEMENT_SET_NO":999,"REV_AT_EPOCH":1913,"BSTAR":3.0079e-5,"MEAN_MOTION_DOT":3.1e-7,"MEAN_MOTION_DDOT":0},{"OBJECT_NAME":"QIANFAN-98","OBJECT_ID":"2025-233H","EPOCH":"2026-03-05T04:16:04.727136","MEAN_MOTION":13.51004547,"ECCENTRICITY":0.0002455,"INCLINATION":88.9924,"RA_OF_ASC_NODE":53.4403,"ARG_OF_PERICENTER":85.4325,"MEAN_ANOMALY":274.7106,"EPHEMERIS_TYPE":0,"CLASSIFICATION_TYPE":"U","NORAD_CAT_ID":66040,"ELEMENT_SET_NO":999,"REV_AT_EPOCH":1928,"BSTAR":4.7946e-5,"MEAN_MOTION_DOT":4.3e-7,"MEAN_MOTION_DDOT":0},{"OBJECT_NAME":"QIANFAN-99","OBJECT_ID":"2025-233J","EPOCH":"2026-03-05T02:35:25.279008","MEAN_MOTION":13.510048,"ECCENTRICITY":0.0002326,"INCLINATION":88.9935,"RA_OF_ASC_NODE":53.7086,"ARG_OF_PERICENTER":89.2005,"MEAN_ANOMALY":270.9412,"EPHEMERIS_TYPE":0,"CLASSIFICATION_TYPE":"U","NORAD_CAT_ID":66041,"ELEMENT_SET_NO":999,"REV_AT_EPOCH":1913,"BSTAR":3.3019e-5,"MEAN_MOTION_DOT":3.3e-7,"MEAN_MOTION_DDOT":0},{"OBJECT_NAME":"QIANFAN-100","OBJECT_ID":"2025-233K","EPOCH":"2026-03-05T04:10:10.888032","MEAN_MOTION":13.51005661,"ECCENTRICITY":0.0001911,"INCLINATION":88.9946,"RA_OF_ASC_NODE":53.6172,"ARG_OF_PERICENTER":91.3677,"MEAN_ANOMALY":268.7693,"EPHEMERIS_TYPE":0,"CLASSIFICATION_TYPE":"U","NORAD_CAT_ID":66042,"ELEMENT_SET_NO":999,"REV_AT_EPOCH":1919,"BSTAR":7.0079e-5,"MEAN_MOTION_DOT":5.7e-7,"MEAN_MOTION_DDOT":0},{"OBJECT_NAME":"QIANFAN-101","OBJECT_ID":"2025-233L","EPOCH":"2026-03-05T05:12:31.582944","MEAN_MOTION":14.26733688,"ECCENTRICITY":0.0016841,"INCLINATION":88.9936,"RA_OF_ASC_NODE":52.5004,"ARG_OF_PERICENTER":120.1512,"MEAN_ANOMALY":240.1353,"EPHEMERIS_TYPE":0,"CLASSIFICATION_TYPE":"U","NORAD_CAT_ID":66043,"ELEMENT_SET_NO":999,"REV_AT_EPOCH":1980,"BSTAR":0.00026836,"MEAN_MOTION_DOT":6.65e-6,"MEAN_MOTION_DDOT":0},{"OBJECT_NAME":"QIANFAN-102","OBJECT_ID":"2025-233M","EPOCH":"2026-03-05T04:39:36.790848","MEAN_MOTION":13.50992423,"ECCENTRICITY":0.0002093,"INCLINATION":88.9933,"RA_OF_ASC_NODE":53.6119,"ARG_OF_PERICENTER":88.554,"MEAN_ANOMALY":271.585,"EPHEMERIS_TYPE":0,"CLASSIFICATION_TYPE":"U","NORAD_CAT_ID":66044,"ELEMENT_SET_NO":999,"REV_AT_EPOCH":1919,"BSTAR":2.2438e-5,"MEAN_MOTION_DOT":2.7e-7,"MEAN_MOTION_DDOT":0}]
